{
  "type": "FeatureCollection",
  "features": [
    {
      "type": "Feature",
      "properties": {
        "norad_id": 31307,
        "name": "GALAXY 17 (G-17)",
        "group": "intelsat",
        "lat": 1.4859369089613326,
        "lon": -135.25373261426378,
        "alt_km": 35761.18045292031,
        "timestamp": "2025-12-03T15:48:02.768988+00:00",
        "meta_object_name": "GALAXY 17 (G-17)",
        "meta_object_id": "2007-016B",
        "meta_epoch": "2025-12-03T06:40:38.582976",
        "meta_mean_motion": 1.00270451,
        "meta_eccentricity": 0.00061166,
        "meta_inclination": 2.4742,
        "meta_ra_of_asc_node": 82.3939,
        "meta_arg_of_pericenter": 156.5605,
        "meta_mean_anomaly": 208.5802,
        "meta_ephemeris_type": 0,
        "meta_classification_type": "U",
        "meta_norad_cat_id": 31307,
        "meta_element_set_no": 999,
        "meta_rev_at_epoch": 6784,
        "meta_bstar": 0,
        "meta_mean_motion_dot": -1.88e-06,
        "meta_mean_motion_ddot": 0,
        "tle_line1": "1 31307U 07016B   25337.27822434 -.00000188  00000+0  00000+0 0  9996",
        "tle_line2": "2 31307   2.4742  82.3939 0006116 156.5605 208.5802  1.00270451 67841"
      },
      "geometry": {
        "type": "Point",
        "coordinates": [
          -135.25373261426378,
          1.4859369089613326
        ]
      }
    },
    {
      "type": "Feature",
      "properties": {
        "norad_id": 31862,
        "name": "DIRECTV 10",
        "group": "intelsat",
        "lat": 0.0004879999620105394,
        "lon": -153.06449931609097,
        "alt_km": 35785.079638875206,
        "timestamp": "2025-12-03T15:48:02.768998+00:00",
        "meta_object_name": "DIRECTV 10",
        "meta_object_id": "2007-032A",
        "meta_epoch": "2025-12-03T01:16:54.672384",
        "meta_mean_motion": 1.00270565,
        "meta_eccentricity": 3.529e-05,
        "meta_inclination": 0.0055,
        "meta_ra_of_asc_node": 216.2593,
        "meta_arg_of_pericenter": 326.4946,
        "meta_mean_anomaly": 165.8273,
        "meta_ephemeris_type": 0,
        "meta_classification_type": "U",
        "meta_norad_cat_id": 31862,
        "meta_element_set_no": 999,
        "meta_rev_at_epoch": 4362,
        "meta_bstar": 0,
        "meta_mean_motion_dot": -8.4e-07,
        "meta_mean_motion_ddot": 0,
        "tle_line1": "1 31862U 07032A   25337.05341056 -.00000084  00000+0  00000+0 0  9997",
        "tle_line2": "2 31862   0.0055 216.2593 0000352 326.4946 165.8273  1.00270565 43627"
      },
      "geometry": {
        "type": "Point",
        "coordinates": [
          -153.06449931609097,
          0.0004879999620105394
        ]
      }
    },
    {
      "type": "Feature",
      "properties": {
        "norad_id": 32253,
        "name": "INTELSAT 11 (IS-11)",
        "group": "intelsat",
        "lat": 2.1603665765659272,
        "lon": -144.58511557517403,
        "alt_km": 36097.203633591074,
        "timestamp": "2025-12-03T15:48:02.769009+00:00",
        "meta_object_name": "INTELSAT 11 (IS-11)",
        "meta_object_id": "2007-044B",
        "meta_epoch": "2025-12-03T04:45:23.573664",
        "meta_mean_motion": 0.990473,
        "meta_eccentricity": 0.00092808,
        "meta_inclination": 3.0534,
        "meta_ra_of_asc_node": 81.0833,
        "meta_arg_of_pericenter": 160.9491,
        "meta_mean_anomaly": 169.3212,
        "meta_ephemeris_type": 0,
        "meta_classification_type": "U",
        "meta_norad_cat_id": 32253,
        "meta_element_set_no": 999,
        "meta_rev_at_epoch": 6650,
        "meta_bstar": 0,
        "meta_mean_motion_dot": 4e-08,
        "meta_mean_motion_ddot": 0,
        "tle_line1": "1 32253U 07044B   25337.19818951  .00000004  00000+0  00000+0 0  9994",
        "tle_line2": "2 32253   3.0534  81.0833 0009280 160.9491 169.3212  0.99047300 66507"
      },
      "geometry": {
        "type": "Point",
        "coordinates": [
          -144.58511557517403,
          2.1603665765659272
        ]
      }
    },
    {
      "type": "Feature",
      "properties": {
        "norad_id": 32388,
        "name": "HORIZONS-2",
        "group": "intelsat",
        "lat": 0.9292486738539335,
        "lon": -124.06029819583817,
        "alt_km": 35767.25929020607,
        "timestamp": "2025-12-03T15:48:02.769019+00:00",
        "meta_object_name": "HORIZONS-2",
        "meta_object_id": "2007-063B",
        "meta_epoch": "2025-12-03T06:33:20.731104",
        "meta_mean_motion": 1.00272115,
        "meta_eccentricity": 0.00049707,
        "meta_inclination": 2.095,
        "meta_ra_of_asc_node": 83.066,
        "meta_arg_of_pericenter": 180.648,
        "meta_mean_anomaly": 193.2025,
        "meta_ephemeris_type": 0,
        "meta_classification_type": "U",
        "meta_norad_cat_id": 32388,
        "meta_element_set_no": 999,
        "meta_rev_at_epoch": 6585,
        "meta_bstar": 0,
        "meta_mean_motion_dot": -2.35e-06,
        "meta_mean_motion_ddot": 0,
        "tle_line1": "1 32388U 07063B   25337.27315661 -.00000235  00000+0  00000+0 0  9990",
        "tle_line2": "2 32388   2.0950  83.0660 0004970 180.6480 193.2025  1.00272115 65857"
      },
      "geometry": {
        "type": "Point",
        "coordinates": [
          -124.06029819583817,
          0.9292486738539335
        ]
      }
    },
    {
      "type": "Feature",
      "properties": {
        "norad_id": 32729,
        "name": "DIRECTV 11",
        "group": "intelsat",
        "lat": -0.00410693584195861,
        "lon": -149.45663732619383,
        "alt_km": 35784.720571533726,
        "timestamp": "2025-12-03T15:48:02.769030+00:00",
        "meta_object_name": "DIRECTV 11",
        "meta_object_id": "2008-013A",
        "meta_epoch": "2025-12-02T10:08:34.465632",
        "meta_mean_motion": 1.0027113,
        "meta_eccentricity": 4.09e-05,
        "meta_inclination": 0.0114,
        "meta_ra_of_asc_node": 215.6397,
        "meta_arg_of_pericenter": 330.8354,
        "meta_mean_anomaly": 298.008,
        "meta_ephemeris_type": 0,
        "meta_classification_type": "U",
        "meta_norad_cat_id": 32729,
        "meta_element_set_no": 999,
        "meta_rev_at_epoch": 4362,
        "meta_bstar": 0,
        "meta_mean_motion_dot": -1.05e-06,
        "meta_mean_motion_ddot": 0,
        "tle_line1": "1 32729U 08013A   25336.42262113 -.00000105  00000+0  00000+0 0  9990",
        "tle_line2": "2 32729   0.0114 215.6397 0000409 330.8354 298.0080  1.00271130 43620"
      },
      "geometry": {
        "type": "Point",
        "coordinates": [
          -149.45663732619383,
          -0.00410693584195861
        ]
      }
    },
    {
      "type": "Feature",
      "properties": {
        "norad_id": 32951,
        "name": "GALAXY 18 (G-18)",
        "group": "intelsat",
        "lat": -0.021611772410123724,
        "lon": -173.3247540386846,
        "alt_km": 35780.36023296791,
        "timestamp": "2025-12-03T15:48:02.769041+00:00",
        "meta_object_name": "GALAXY 18 (G-18)",
        "meta_object_id": "2008-024A",
        "meta_epoch": "2025-12-02T16:37:27.594336",
        "meta_mean_motion": 1.00272815,
        "meta_eccentricity": 0.00033974,
        "meta_inclination": 0.0216,
        "meta_ra_of_asc_node": 348.532,
        "meta_arg_of_pericenter": 266.2767,
        "meta_mean_anomaly": 303.3251,
        "meta_ephemeris_type": 0,
        "meta_classification_type": "U",
        "meta_norad_cat_id": 32951,
        "meta_element_set_no": 999,
        "meta_rev_at_epoch": 4388,
        "meta_bstar": 0,
        "meta_mean_motion_dot": 0,
        "meta_mean_motion_ddot": 0,
        "tle_line1": "1 32951U 08024A   25336.69268049  .00000000  00000+0  00000+0 0  9995",
        "tle_line2": "2 32951   0.0216 348.5320 0003397 266.2767 303.3251  1.00272815 43880"
      },
      "geometry": {
        "type": "Point",
        "coordinates": [
          -173.3247540386846,
          -0.021611772410123724
        ]
      }
    },
    {
      "type": "Feature",
      "properties": {
        "norad_id": 33153,
        "name": "INTELSAT 25 (IS-25)",
        "group": "intelsat",
        "lat": -0.6076674569410688,
        "lon": -81.74736056618083,
        "alt_km": 35764.82741114741,
        "timestamp": "2025-12-03T15:48:02.769051+00:00",
        "meta_object_name": "INTELSAT 25 (IS-25)",
        "meta_object_id": "2008-034A",
        "meta_epoch": "2025-12-03T06:45:27.071712",
        "meta_mean_motion": 1.0027143,
        "meta_eccentricity": 0.00053409,
        "meta_inclination": 2.2014,
        "meta_ra_of_asc_node": 82.754,
        "meta_arg_of_pericenter": 177.1809,
        "meta_mean_anomaly": 242.3102,
        "meta_ephemeris_type": 0,
        "meta_classification_type": "U",
        "meta_norad_cat_id": 33153,
        "meta_element_set_no": 999,
        "meta_rev_at_epoch": 6373,
        "meta_bstar": 0,
        "meta_mean_motion_dot": -2.06e-06,
        "meta_mean_motion_ddot": 0,
        "tle_line1": "1 33153U 08034A   25337.28156333 -.00000206  00000+0  00000+0 0  9998",
        "tle_line2": "2 33153   2.2014  82.7540 0005340 177.1809 242.3102  1.00271430 63738"
      },
      "geometry": {
        "type": "Point",
        "coordinates": [
          -81.74736056618083,
          -0.6076674569410688
        ]
      }
    }
  ]
}